{
  "type": "FeatureCollection",
  "features": [
    {
      "type": "Feature",
      "properties": {
        "norad_id": 46965,
        "name": "IRIDIUM 33 DEB",
        "group": "iridium-33-debris",
        "lat": -66.66976474758995,
        "lon": -33.70420156678866,
        "alt_km": 687.3057548154484,
        "timestamp": "2025-12-25T22:42:17.399108+00:00",
        "meta_object_name": "IRIDIUM 33 DEB",
        "meta_object_id": "1997-051ABX",
        "meta_epoch": "2025-12-23T05:18:49.392864",
        "meta_mean_motion": 14.60370511,
        "meta_eccentricity": 0.00170224,
        "meta_inclination": 86.3362,
        "meta_ra_of_asc_node": 336.0473,
        "meta_arg_of_pericenter": 295.0187,
        "meta_mean_anomaly": 82.9345,
        "meta_ephemeris_type": 0,
        "meta_classification_type": "U",
        "meta_norad_cat_id": 46965,
        "meta_element_set_no": 999,
        "meta_rev_at_epoch": 62421,
        "meta_bstar": 0.00084803208,
        "meta_mean_motion_dot": 4.13e-05,
        "meta_mean_motion_ddot": 0,
        "tle_line1": "1 46965U 97051ABX 25357.22140501  .00004130  00000+0  84803-3 0  9992",
        "tle_line2": "2 46965  86.3362 336.0473 0017022 295.0187  82.9345 14.60370511624214"
      },
      "geometry": {
        "type": "Point",
        "coordinates": [
          -33.70420156678866,
          -66.66976474758995
        ]
      }
    },
    {
      "type": "Feature",
      "properties": {
        "norad_id": 46971,
        "name": "IRIDIUM 33 DEB",
        "group": "iridium-33-debris",
        "lat": 19.749746816828033,
        "lon": -31.779062222495856,
        "alt_km": 572.0685730065497,
        "timestamp": "2025-12-25T22:42:17.399122+00:00",
        "meta_object_name": "IRIDIUM 33 DEB",
        "meta_object_id": "1997-051ACD",
        "meta_epoch": "2025-12-18T04:46:20.926848",
        "meta_mean_motion": 14.98336604,
        "meta_eccentricity": 0.00026432,
        "meta_inclination": 86.3383,
        "meta_ra_of_asc_node": 330.5483,
        "meta_arg_of_pericenter": 282.6501,
        "meta_mean_anomaly": 90.914,
        "meta_ephemeris_type": 0,
        "meta_classification_type": "U",
        "meta_norad_cat_id": 46971,
        "meta_element_set_no": 999,
        "meta_rev_at_epoch": 64312,
        "meta_bstar": 0.0022892837,
        "meta_mean_motion_dot": 0.00027356,
        "meta_mean_motion_ddot": 0,
        "tle_line1": "1 46971U 97051ACD 25352.19885332  .00027356  00000+0  22893-2 0  9993",
        "tle_line2": "2 46971  86.3383 330.5483 0002643 282.6501  90.9140 14.98336604643128"
      },
      "geometry": {
        "type": "Point",
        "coordinates": [
          -31.779062222495856,
          19.749746816828033
        ]
      }
    },
    {
      "type": "Feature",
      "properties": {
        "norad_id": 46972,
        "name": "IRIDIUM 33 DEB",
        "group": "iridium-33-debris",
        "lat": 73.03729391544091,
        "lon": 45.676852710670836,
        "alt_km": 708.2280822481844,
        "timestamp": "2025-12-25T22:42:17.399132+00:00",
        "meta_object_name": "IRIDIUM 33 DEB",
        "meta_object_id": "1997-051ACE",
        "meta_epoch": "2025-12-24T20:41:33.679968",
        "meta_mean_motion": 14.50725222,
        "meta_eccentricity": 0.00114655,
        "meta_inclination": 86.386,
        "meta_ra_of_asc_node": 34.1849,
        "meta_arg_of_pericenter": 73.1922,
        "meta_mean_anomaly": 103.3991,
        "meta_ephemeris_type": 0,
        "meta_classification_type": "U",
        "meta_norad_cat_id": 46972,
        "meta_element_set_no": 999,
        "meta_rev_at_epoch": 61748,
        "meta_bstar": 0.00047832722,
        "meta_mean_motion_dot": 1.902e-05,
        "meta_mean_motion_ddot": 0,
        "tle_line1": "1 46972U 97051ACE 25358.86219537  .00001902  00000+0  47833-3 0  9993",
        "tle_line2": "2 46972  86.3860  34.1849 0011465  73.1922 103.3991 14.50725222617483"
      },
      "geometry": {
        "type": "Point",
        "coordinates": [
          45.676852710670836,
          73.03729391544091
        ]
      }
    },
    {
      "type": "Feature",
      "properties": {
        "norad_id": 46974,
        "name": "IRIDIUM 33 DEB",
        "group": "iridium-33-debris",
        "lat": -21.772132811080642,
        "lon": 98.02663326476443,
        "alt_km": 814.2159965379051,
        "timestamp": "2025-12-25T22:42:17.399142+00:00",
        "meta_object_name": "IRIDIUM 33 DEB",
        "meta_object_id": "1997-051ACG",
        "meta_epoch": "2025-12-24T13:33:38.674944",
        "meta_mean_motion": 14.4467358,
        "meta_eccentricity": 0.00953774,
        "meta_inclination": 86.2978,
        "meta_ra_of_asc_node": 100.1118,
        "meta_arg_of_pericenter": 148.7581,
        "meta_mean_anomaly": 211.934,
        "meta_ephemeris_type": 0,
        "meta_classification_type": "U",
        "meta_norad_cat_id": 46974,
        "meta_element_set_no": 999,
        "meta_rev_at_epoch": 57679,
        "meta_bstar": 0.0036585288,
        "meta_mean_motion_dot": 0.00013438,
        "meta_mean_motion_ddot": 0,
        "tle_line1": "1 46974U 97051ACG 25358.56503096  .00013438  00000+0  36585-2 0  9996",
        "tle_line2": "2 46974  86.2978 100.1118 0095377 148.7581 211.9340 14.44673580576795"
      },
      "geometry": {
        "type": "Point",
        "coordinates": [
          98.02663326476443,
          -21.772132811080642
        ]
      }
    },
    {
      "type": "Feature",
      "properties": {
        "norad_id": 46979,
        "name": "IRIDIUM 33 DEB",
        "group": "iridium-33-debris",
        "lat": -15.764121258787677,
        "lon": 41.37418358783461,
        "alt_km": 620.7119250814612,
        "timestamp": "2025-12-25T22:42:17.399153+00:00",
        "meta_object_name": "IRIDIUM 33 DEB",
        "meta_object_id": "1997-051ACM",
        "meta_epoch": "2025-12-24T20:59:38.183136",
        "meta_mean_motion": 14.90364123,
        "meta_eccentricity": 0.002819,
        "meta_inclination": 86.3328,
        "meta_ra_of_asc_node": 42.91,
        "meta_arg_of_pericenter": 179.7106,
        "meta_mean_anomaly": 180.4142,
        "meta_ephemeris_type": 0,
        "meta_classification_type": "U",
        "meta_norad_cat_id": 46979,
        "meta_element_set_no": 999,
        "meta_rev_at_epoch": 35609,
        "meta_bstar": 0.0040991,
        "meta_mean_motion_dot": 0.00040379,
        "meta_mean_motion_ddot": 0,
        "tle_line1": "1 46979U 97051ACM 25358.87474749  .00040379  00000+0  40991-2 0  9997",
        "tle_line2": "2 46979  86.3328  42.9100 0028190 179.7106 180.4142 14.90364123356090"
      },
      "geometry": {
        "type": "Point",
        "coordinates": [
          41.37418358783461,
          -15.764121258787677
        ]
      }
    }
  ]
}